P/2015 D6 (Lemmon-PANSTARRS),e,20.2016,46.0098,125.1755,7.144610,0.0516103,0.36183128,107.4018,03/14.0/2021,2000,g 10.5,4.0
# From MPC112390
C/2015 ER61 (PANSTARRS),e,6.3363,235.1441,68.3309,500.5527,0.0000880,0.99791526,0.0000,05/10.4922/2017,2000,g 11.0,2.0
# From MPEC 2018-BF5
C/2015 E61-B (PANSTARRS),e,6.3379,235.1792,68.4201,1447,0.0000179,0.99927785,0.0000,05/10.4698/2017,2000,g 13.5,2.0
# From MPEC 2021-DA4
P/2015 F1 (PANSTARRS),e,2.8027,40.3915,187.4818,3.522366,0.1490913,0.27795067,326.0982,03/14.0/2021,2000,g 12.5,4.0
# From MPC117068
C/2015 H2 (PANSTARRS),h,09/14.2122/2016,33.6519,350.6758,288.1118,1.005667,4.979351,2000,7.5,4.0
# From MPC100280
P/2015 HG16 (PANSTARRS),e,18.7914,58.7488,47.4527,4.748449,0.0952525,0.35153146,234.0050,03/14.0/2021,2000,g 12.5,4.0
# From MPC 95213
P/2015 K5 (PANSTARRS),e,39.9448,134.1747,106.3439,6.721222,0.0565629,0.55336983,119.2736,03/14.0/2021,2000,g 13.5,4.0
# From MPC107684
P/2015 M2 (PANSTARRS),e,3.9726,86.5839,225.4926,7.229882,0.0506999,0.18102384,102.0074,03/14.0/2021,2000,g  8.5,4.0
# From MPC112390
C/2015 O1 (PANSTARRS),h,02/19.6726/2018,127.2248,299.8515,89.6279,1.001173,3.728909,2000,6.5,4.0
# From MPC 99819
P/2015 P4 (PANSTARRS),e,8.7176,104.7578,280.5685,6.049229,0.0662451,0.58474510,124.5368,03/14.0/2021,2000,g 14.0,4.0
# From MPC102952
P/2015 PD229 (Cameron-ISON),e,2.0263,342.6323,352.4603,7.182861,0.0511986,0.32818080,104.2907,03/14.0/2021,2000,g 11.5,2.0
# From MPC 99819
P/2015 Q1 (Scotti),e,22.3828,202.8982,199.8356,3.474397,0.1521896,0.47822806,308.7722,03/14.0/2021,2000,g 14.0,4.0
# From MPC 96867
P/2015 Q2 (Pimentel),e,146.4984,228.4252,244.4969,7.348314,0.0494792,0.75078089,99.7598,03/14.0/2021,2000,g 15.5,4.0
# From MPC 98562
P/2015 R1 (PANSTARRS),e,22.6800,48.4227,300.4364,5.880308,0.0691200,0.63416361,144.1649,03/14.0/2021,2000,g 14.0,4.0
# From MPC 95734
P/2015 R2 (PANSTARRS),e,15.4807,168.5990,149.7640,4.488189,0.1036567,0.45288464,217.8191,03/14.0/2021,2000,g 14.5,4.0
# From MPC117068
C/2015 T2 (PANSTARRS),e,124.5524,51.0225,30.6545,1912,0.0000118,0.99637211,0.0000,05/18.3440/2017,2000,g  8.0,4.0
# From MPC 96280
P/2015 T3 (PANSTARRS),e,13.0937,120.5019,178.6330,4.326181,0.1095335,0.50818108,359.9227,12/21.0/2014,2000,g 14.0,4.0
# From MPC102953
C/2015 T4 (PANSTARRS),e,88.0026,251.8346,270.0734,79.68040,0.0013857,0.97113480,0.0000,06/16.7494/2016,2000,g 11.0,4.0
# From MPC102953
P/2015 TO19 (Lemmon-PANSTARRS),e,6.4995,321.6519,89.1234,4.555824,0.1013570,0.35819695,185.9640,03/14.0/2021,2000,g 14.0,4.0
# From MPC110080
P/2015 TP200 (LINEAR),e,8.7776,6.9999,82.5981,7.274499,0.0502342,0.53500769,80.3205,03/14.0/2021,2000,g 11.0,4.0
# From MPC101097
C/2015 TQ209 (LINEAR),e,11.3040,223.3709,282.1410,569.7393,0.0000725,0.99751446,0.0000,08/25.2357/2016,2000,g 10.5,4.0
# From MPC115881
C/2015 V1 (PANSTARRS),e,139.2241,197.1812,179.6200,2257,0.0000092,0.99810797,0.0000,12/16.7913/2017,2000,g  6.5,4.0
# From MPC112390
C/2015 V2 (Johnson),h,06/11.8271/2017,49.8512,69.9073,165.0017,1.001861,1.644735,2000,5.0,4.0
# From MPC104791
C/2015 V4 (PANSTARRS),e,60.7885,179.9381,306.9631,18.46958,0.0124170,0.70438920,20.5978,03/14.0/2021,2000,g  8.5,4.0
# From MPC115881
C/2015 VL62 (Lemmon-Yeung-PANSTARRS),h,08/27.8669/2017,165.8172,95.1092,128.8124,1.001255,2.718689,2000,8.0,4.0
# From MPC102098
C/2015 WZ (PANSTARRS),e,134.6359,40.1982,66.7614,147.3633,0.0005510,0.99062531,0.0000,04/13.7172/2016,2000,g 15.0,4.0
# From MPC109142
C/2015 W1 (Gibbs),e,87.3628,114.3163,48.1640,2555,0.0000076,0.99912202,0.0000,05/13.5505/2016,2000,g 13.0,4.0
# From MPC101098
P/2015 W2 (Catalina),e,11.6070,294.2491,117.4934,7.295425,0.0500182,0.63397752,99.5952,03/14.0/2021,2000,g 13.0,4.0
# From MPC101098
P/2015 X1 (PANSTARRS),e,12.1515,161.7676,218.9262,3.632189,0.1423808,0.41903979,282.8074,03/14.0/2021,2000,g 16.0,4.0
# From MPEC 2020-AA5
C/2015 XY1 (Lemmon),h,04/27.4458/2018,148.8542,281.6189,196.2145,1.002456,7.923459,2000,5.5,4.0
# From MPC 97498
P/2015 X3 (PANSTARRS),e,24.3879,77.3102,306.6577,5.009047,0.0879167,0.43897577,179.7614,03/14.0/2021,2000,g 15.0,4.0
# From MPC119995
C/2015 X5 (PANSTARRS),h,12/29.1441/2017,124.3082,122.3458,27.6406,1.001554,6.796601,2000,7.5,4.0
# From MPC115881
P/2015 X6 (PANSTARRS),e,4.5647,106.9471,329.8624,2.753437,0.2157205,0.17262162,31.9027,03/14.0/2021,2000,g 16.0,4.0
# From MPC109143
C/2015 X7 (ATLAS),e,57.5595,139.9322,348.3646,8042,0.0000014,0.99954237,0.0000,07/29.0786/2016,2000,g  9.0,4.0
# From MPC109143
C/2015 Y1 (LINEAR),e,71.1630,135.8187,24.6506,239.8538,0.0002653,0.98950964,0.0000,05/13.3066/2016,2000,g 12.0,4.0
# From MPC119995
C/2016 A1 (PANSTARRS),h,11/22.3498/2017,121.2052,128.2080,10.2210,1.001058,5.321844,2000,6.0,4.0
# From MPC100282
P/2016 A2 (Christensen),e,26.4056,291.6158,141.4707,4.751655,0.0951561,0.27060279,199.5070,03/14.0/2021,2000,g 11.5,4.0
# From MPC115881
P/2016 A3 (PANSTARRS),e,8.5100,187.2511,341.0169,7.889475,0.0444766,0.38693647,62.9384,03/14.0/2021,2000,g 10.0,4.0
# From MPC102098
P/2016 A7 (PANSTARRS),e,16.6171,221.4909,352.6214,5.032391,0.0873057,0.56501728,161.0816,03/14.0/2021,2000,g 16.0,4.0
# From MPC106345
C/2016 A8 (LINEAR),e,148.2430,111.3452,130.4430,34.33838,0.0048982,0.94494096,8.1207,03/14.0/2021,2000,g 12.0,4.0
# From MPC107048
C/2016 B1 (NEOWISE),e,50.4458,232.0158,8.6866,438.5238,0.0001073,0.99266437,0.0000,12/04.4708/2016,2000,g  9.5,4.0
# From MPC109143
P/2016 BA14 (PANSTARRS),e,18.8935,180.5276,351.8893,3.025293,0.1873065,0.66522051,342.1452,03/14.0/2021,2000,g 21.0,4.0
# From MPC110494
C/2016 C1 (PANSTARRS),h,02/18.0546/2016,56.2382,181.8230,328.7094,1.001626,8.463063,2000,5.5,4.0
# From MPC101098
C/2016 C2 (NEOWISE),e,38.0299,24.4286,214.5863,65.94989,0.0018403,0.97619318,0.0000,04/19.0420/2016,2000,g 16.0,4.0
# From MPC110494
C/2016 E1 (PANSTARRS),h,06/04.4167/2017,131.8851,233.0869,47.4798,1.006338,8.178766,2000,6.5,4.0
# From MPC102098
P/2016 G1 (PANSTARRS),e,10.9679,204.0367,111.2118,2.583616,0.2373352,0.21122473,358.0638,03/14.0/2021,2000,g 14.0,4.0
# From MPEC 2017-D91
P/2016 J1-A (PANSTARRS),e,14.3264,199.8128,46.9357,3.173531,0.1743372,0.22804598,300.1148,03/14.0/2021,2000,g 16.5,4.0
# From MPEC 2017-A77
P/2016 J1-B (PANSTARRS),e,14.3292,199.8176,46.8268,3.173160,0.1743677,0.22789677,300.2421,03/14.0/2021,2000,g 17.0,4.0
# From MPC101099
C/2016 J2 (Denneau),e,130.3260,186.4403,318.6593,648.5018,0.0000597,0.99765852,0.0000,04/12.6089/2016,2000,g 17.0,4.0
# From MPC104792
C/2016 K1 (LINEAR),h,07/13.5756/2016,90.9441,325.6124,18.3230,1.000216,2.295987,2000,13.0,4.0
# From MPC119995
C/2016 M1 (PANSTARRS),e,90.9837,92.2143,209.9076,9286,0.0000011,0.99976170,0.0000,08/10.4219/2018,2000,g  5.0,4.0
# From MPC115881
C/2016 N4 (MASTER),e,72.6253,353.9938,55.9404,2838,0.0000065,0.99887342,0.0000,09/16.6868/2017,2000,g  8.5,4.0
# From MPC119995
C/2016 N6 (PANSTARRS),e,105.8410,298.9879,162.7108,1395,0.0000189,0.99808950,0.0000,07/17.9871/2018,2000,g  7.0,4.0
# From MPC102099
P/2016 P1 (PANSTARRS),e,24.4563,319.5649,270.0900,3.193592,0.1726970,0.28913156,344.7609,03/14.0/2021,2000,g 15.0,4.0
# From MPC102099
C/2016 P4 (PANSTARRS),e,29.8803,320.7241,356.2413,415.2017,0.0001165,0.98579499,0.0000,10/18.6273/2016,2000,g 10.5,4.0
# From MPC118093
C/2016 Q2 (PANSTARRS),h,05/11.8327/2021,109.3883,322.2960,84.5248,1.000418,7.081864,2000,6.0,4.0
# From MPC102955
C/2016 Q4 (Kowalski),e,7.2558,271.2907,99.4484,16.93797,0.0141388,0.58161746,16.1334,03/14.0/2021,2000,g  7.0,4.0
# From MPC119995
C/2016 R2 (PANSTARRS),e,58.2377,80.5592,33.1528,509.8461,0.0000856,0.99489659,0.0000,05/09.0908/2018,2000,g  7.0,4.0
# From MPC102099
C/2016 R3 (Borisov),e,53.0320,78.7624,118.1749,198.0833,0.0003535,0.99770976,0.0000,10/10.0339/2016,2000,g 18.0,4.0
# From MPC109144
P/2016 R4 (Gibbs),e,10.8739,168.2691,174.0316,5.331533,0.0800619,0.47630393,135.7717,03/14.0/2021,2000,g 12.5,4.0
# From MPC105543
P/2016 S1 (PANSTARRS),e,94.6778,227.5537,273.2790,8.278393,0.0413795,0.70997782,60.3736,03/14.0/2021,2000,g 12.0,4.0
# From MPC105238
C/2016 T1 (Matheny),e,129.8505,56.3349,137.4777,125.1251,0.0007042,0.98157362,0.0000,02/01.3892/2017,2000,g 14.5,4.0
# From MPC107685
C/2016 T2 (Matheny),e,81.3985,339.1829,92.2057,99.24254,0.0009969,0.98081690,0.0000,12/29.3917/2016,2000,g 14.5,4.0
# From MPC110082
C/2016 T3 (PANSTARRS),e,22.6830,271.7262,194.6292,130.9235,0.0006579,0.97978140,0.0000,09/06.4165/2017,2000,g 10.5,4.0
# From MPC103847
C/2016 U1 (NEOWISE),h,01/13.8023/2017,46.2971,61.5595,162.8171,1.000406,0.323529,2000,17.0,4.0
# From MPC106345
C/2016 VZ18 (PANSTARRS),e,23.9792,98.9206,36.4044,162.5045,0.0004758,0.99437265,0.0000,03/05.3685/2017,2000,g 19.5,4.0
# From MPC106345
P/2016 WM48 (Lemmon),e,117.4570,59.9045,36.0848,8.165184,0.0422430,0.78382078,62.4920,03/14.0/2021,2000,g 15.0,4.0
# From MPC119995
C/2016 X1 (Lemmon),e,26.4530,256.4047,224.4948,1269,0.0000218,0.99404101,0.0000,04/28.4522/2019,2000,g  6.0,4.0
# From MPC108594
C/2017 A1 (PANSTARRS),e,49.7926,121.0439,2.0051,75.99147,0.0014878,0.96986437,2.0799,03/14.0/2021,2000,g 13.0,4.0
# From MPC108594
C/2017 A3 (Elenin),e,98.5274,97.8945,303.9895,43.43436,0.0034431,0.91147071,5.1754,03/14.0/2021,2000,g  9.5,4.0
# From MPC114598
C/2017 AB5 (PANSTARRS),e,32.4427,42.6362,78.3249,2311,0.0000089,0.99601325,0.0000,02/15.2589/2018,2000,g  5.5,4.0
# From MPC119995
C/2017 B3 (LINEAR),h,02/02.5562/2019,54.1680,2.1791,284.7980,1.001552,3.923385,2000,6.0,4.0
# From MPC103847
P/2017 B4 (PANSTARRS),e,20.0584,121.4578,11.0197,4.410520,0.1064068,0.36495152,359.9130,01/05.0/2017,2000,g 14.5,4.0
# From MPC104793
C/2017 C1 (NEOWISE),e,65.7623,357.5559,110.0564,20.57736,0.0105589,0.92717175,16.0023,03/14.0/2021,2000,g 18.0,4.0
# From MPC107685
C/2017 C2 (PANSTARRS),e,118.5855,249.7662,138.5779,96.02042,0.0010475,0.97477450,0.0000,01/21.4443/2017,2000,g 14.0,4.0
# From MPC104793
P/2017 D1 (Fuls),e,20.7557,82.1803,8.0359,4.829827,0.0928553,0.43624969,160.1043,03/14.0/2021,2000,g 14.0,4.0
# From MPC112391
